{"type": "FeatureCollection", "features": [ {"type": "Feature", "properties": {"norad_id": 31196, "name": "FENGYUN 1C DEB", "group": "fengyun-1c-debris", "lat": -49.609794893364615, "lon": 1.57085290073006, "alt_km": 800.6261488702066, "timestamp": "2025-12-03T22:42:32.915523+00:00", "meta": {"OBJECT_NAME": "FENGYUN 1C DEB", "OBJECT_ID": "1999-025BKA", "EPOCH": "2025-12-02T21:40:30.516672", "MEAN_MOTION": 14.25418516, "ECCENTRICITY": 0.00575497, "INCLINATION": 98.5272, "RA_OF_ASC_NODE": 350.3996, "ARG_OF_PERICENTER": 241.2057, "MEAN_ANOMALY": 118.3336, "EPHEMERIS_TYPE": 0, "CLASSIFICATION_TYPE": "U", "NORAD_CAT_ID": 31196, "ELEMENT_SET_NO": 999, "REV_AT_EPOCH": 63355, "BSTAR": 0.00068328538, "MEAN_MOTION_DOT": 1.597e-05, "MEAN_MOTION_DDOT": 0}, "tle": {"line1": "1 31196U 99025BKA 25336.90313098  .00001597  00000+0  68329-3 0  9999", "line2": "2 31196  98.5272 350.3996 0057549 241.2057 118.3336 14.25418516633555"}}, "geometry": {"type": "Point", "coordinates": [1.57085290073006, -49.609794893364615]}}, {"type": "Feature", "properties": {"norad_id": 31198, "name": "FENGYUN 1C DEB", "group": "fengyun-1c-debris", "lat": 68.3109437699676, "lon": -74.94907600681704, "alt_km": 982.6386383175995, "timestamp": "2025-12-03T22:42:32.915532+00:00", "meta": {"OBJECT_NAME": "FENGYUN 1C DEB", "OBJECT_ID": "1999-025BKC", "EPOCH": "2025-12-01T12:34:56.883936", "MEAN_MOTION": 13.75517789, "ECCENTRICITY": 0.02043988, "INCLINATION": 98.6128, "RA_OF_ASC_NODE": 80.4615, "ARG_OF_PERICENTER": 21.657, "MEAN_ANOMALY": 339.3074, "EPHEMERIS_TYPE": 0, "CLASSIFICATION_TYPE": "U", "NORAD_CAT_ID": 31198, "ELEMENT_SET_NO": 999, "REV_AT_EPOCH": 62599, "BSTAR": 9.550966e-05, "MEAN_MOTION_DOT": 6.9e-07, "MEAN_MOTION_DDOT": 0}, "tle": {"line1": "1 31198U 99025BKC 25335.52426949  .00000069  00000+0  95510-4 0  9994", "line2": "2 31198  98.6128  80.4615 0204398  21.6570 339.3074 13.75517789625992"}}, "geometry": {"type": "Point", "coordinates": [-74.94907600681704, 68.3109437699676]}}, {"type": "Feature", "properties": {"norad_id": 31199, "name": "FENGYUN 1C DEB", "group": "fengyun-1c-debris", "lat": -62.199078393373384, "lon": 124.0868345853035, "alt_km": 831.8808550306521, "timestamp": "2025-12-03T22:42:32.915541+00:00", "meta": {"OBJECT_NAME": "FENGYUN 1C DEB", "OBJECT_ID": "1999-025BKD", "EPOCH": "2025-12-01T22:00:32.715648", "MEAN_MOTION": 14.0997455, "ECCENTRICITY": 0.00638947, "INCLINATION": 98.7153, "RA_OF_ASC_NODE": 319.0345, "ARG_OF_PERICENTER": 290.7874, "MEAN_ANOMALY": 99.0046, "EPHEMERIS_TYPE": 0, "CLASSIFICATION_TYPE": "U", "NORAD_CAT_ID": 31199, "ELEMENT_SET_NO": 999, "REV_AT_EPOCH": 96007, "BSTAR": 0.00023048565, "MEAN_MOTION_DOT": 3.71e-06, "MEAN_MOTION_DDOT": 0}, "tle": {"line1": "1 31199U 99025BKD 25335.91704532  .00000371  00000+0  23049-3 0  9998", "line2": "2 31199  98.7153 319.0345 0063894 290.7874  99.0046 14.09974550960074"}}, "geometry": {"type": "Point", "coordinates": [124.0868345853035, -62.199078393373384]}}, {"type": "Feature", "properties": {"norad_id": 31201, "name": "FENGYUN 1C DEB", "group": "fengyun-1c-debris", "lat": 20.240515962139344, "lon": -164.90907509556237, "alt_km": 672.5386053118264, "timestamp": "2025-12-03T22:42:32.915550+00:00", "meta": {"OBJECT_NAME": "FENGYUN 1C DEB", "OBJECT_ID": "1999-025BKF", "EPOCH": "2025-12-02T13:17:04.585920", "MEAN_MOTION": 14.35076878, "ECCENTRICITY": 0.01431702, "INCLINATION": 99.0033, "RA_OF_ASC_NODE": 196.9902, "ARG_OF_PERICENTER": 20.9712, "MEAN_ANOMALY": 8.5731, "EPHEMERIS_TYPE": 0, "CLASSIFICATION_TYPE": "U", "NORAD_CAT_ID": 31201, "ELEMENT_SET_NO": 999, "REV_AT_EPOCH": 97105, "BSTAR": 0.0010461824, "MEAN_MOTION_DOT": 3.301e-05, "MEAN_MOTION_DDOT": 0}, "tle": {"line1": "1 31201U 99025BKF 25336.55352530  .00003301  00000+0  10462-2 0  9990", "line2": "2 31201  99.0033 196.9902 0143170  20.9712   8.5731 14.35076878971051"}}, "geometry": {"type": "Point", "coordinates": [-164.90907509556237, 20.240515962139344]}}, {"type": "Feature", "properties": {"norad_id": 31202, "name": "FENGYUN 1C DEB", "group": "fengyun-1c-debris", "lat": 67.30288200849859, "lon": 8.733047207216924, "alt_km": 646.3193778322284, "timestamp": "2025-12-03T22:42:32.915559+00:00", "meta": {"OBJECT_NAME": "FENGYUN 1C DEB", "OBJECT_ID": "1999-025BKG", "EPOCH": "2025-12-03T09:31:54.459840", "MEAN_MOTION": 14.83802552, "ECCENTRICITY": 0.006774, "INCLINATION": 96.5749, "RA_OF_ASC_NODE": 24.2879, "ARG_OF_PERICENTER": 208.9415, "MEAN_ANOMALY": 168.7885, "EPHEMERIS_TYPE": 0, "CLASSIFICATION_TYPE": "U", "NORAD_CAT_ID": 31202, "ELEMENT_SET_NO": 999, "REV_AT_EPOCH": 99016, "BSTAR": 0.0015244, "MEAN_MOTION_DOT": 0.00013129, "MEAN_MOTION_DDOT": 0}, "tle": {"line1": "1 31202U 99025BKG 25337.39715810  .00013129  00000+0  15244-2 0  9990", "line2": "2 31202  96.5749  24.2879 0067740 208.9415 168.7885 14.83802552990161"}}, "geometry": {"type": "Point", "coordinates": [8.733047207216924, 67.30288200849859]}}, {"type": "Feature", "properties": {"norad_id": 31205, "name": "FENGYUN 1C DEB", "group": "fengyun-1c-debris", "lat": 76.32314649623096, "lon": -67.4068237110027, "alt_km": 865.8651804435403, "timestamp": "2025-12-03T22:42:32.915569+00:00", "meta": {"OBJECT_NAME": "FENGYUN 1C DEB", "OBJECT_ID": "1999-025BKK", "EPOCH": "2025-12-03T12:06:32.089248", "MEAN_MOTION": 14.23943825, "ECCENTRICITY": 0.0161532, "INCLINATION": 99.2295, "RA_OF_ASC_NODE": 70.2034, "ARG_OF_PERICENTER": 223.8768, "MEAN_ANOMALY": 134.9486, "EPHEMERIS_TYPE": 0, "CLASSIFICATION_TYPE": "U", "NORAD_CAT_ID": 31205, "ELEMENT_SET_NO": 999, "REV_AT_EPOCH": 97079, "BSTAR": 0.00025208, "MEAN_MOTION_DOT": 6.1e-06, "MEAN_MOTION_DDOT": 0}, "tle": {"line1": "1 31205U 99025BKK 25337.50453807  .00000610  00000+0  25208-3 0  9994", "line2": "2 31205  99.2295  70.2034 0161532 223.8768 134.9486 14.23943825970797"}}, "geometry": {"type": "Point", "coordinates": [-67.4068237110027, 76.32314649623096]}}, {"type": "Feature", "properties": {"norad_id": 31206, "name": "FENGYUN 1C DEB", "group": "fengyun-1c-debris", "lat": -39.0221398548432, "lon": -107.173517839253, "alt_km": 741.3790360087232, "timestamp": "2025-12-03T22:42:32.915577+00:00", "meta": {"OBJECT_NAME": "FENGYUN 1C DEB", "OBJECT_ID": "1999-025BKL", "EPOCH": "2025-12-03T11:13:15.059424", "MEAN_MOTION": 14.40425635, "ECCENTRICITY": 0.0078294, "INCLINATION": 98.8439, "RA_OF_ASC_NODE": 245.0832, "ARG_OF_PERICENTER": 29.0129, "MEAN_ANOMALY": 331.5376, "EPHEMERIS_TYPE": 0, "CLASSIFICATION_TYPE": "U", "NORAD_CAT_ID": 31206, "ELEMENT_SET_NO": 999, "REV_AT_EPOCH": 97712, "BSTAR": 0.0011196, "MEAN_MOTION_DOT": 3.641e-05, "MEAN_MOTION_DDOT": 0}, "tle": {"line1": "1 31206U 99025BKL 25337.46753541  .00003641  00000+0  11196-2 0  9995", "line2": "2 31206  98.8439 245.0832 0078294  29.0129 331.5376 14.40425635977120"}}, "geometry": {"type": "Point", "coordinates": [-107.173517839253, -39.0221398548432]}}, {"type": "Feature", "properties": {"norad_id": 31208, "name": "FENGYUN 1C DEB", "group": "fengyun-1c-debris", "lat": -69.40316684462388, "lon": -85.04907597098827, "alt_km": 687.4108271379109, "timestamp": "2025-12-03T22:42:32.915586+00:00", "meta": {"OBJECT_NAME": "FENGYUN 1C DEB", "OBJECT_ID": "1999-025BKN", "EPOCH": "2025-12-03T08:33:10.539936", "MEAN_MOTION": 14.61381689, "ECCENTRICITY": 0.0015801, "INCLINATION": 99.2406, "RA_OF_ASC_NODE": 119.9632, "ARG_OF_PERICENTER": 294.0417, "MEAN_ANOMALY": 96.1673, "EPHEMERIS_TYPE": 0, "CLASSIFICATION_TYPE": "U", "NORAD_CAT_ID": 31208, "ELEMENT_SET_NO": 999, "REV_AT_EPOCH": 70342, "BSTAR": 0.0039014, "MEAN_MOTION_DOT": 0.00019327, "MEAN_MOTION_DDOT": 0}, "tle": {"line1": "1 31208U 99025BKN 25337.35637199  .00019327  00000+0  39014-2 0  9992", "line2": "2 31208  99.2406 119.9632 0015801 294.0417  96.1673 14.61381689703424"}}, "geometry": {"type": "Point", "coordinates": [-85.04907597098827, -69.40316684462388]}}, {"type": "Feature", "properties": {"norad_id": 31209, "name": "FENGYUN 1C DEB", "group": "fengyun-1c-debris", "lat": -48.49538708069415, "lon": 82.8303964870402, "alt_km": 747.7023134096889, "timestamp": "2025-12-03T22:42:32.915595+00:00", "meta": {"OBJECT_NAME": "FENGYUN 1C DEB", "OBJECT_ID": "1999-025BKP", "EPOCH": "2025-11-30T00:05:28.523040", "MEAN_MOTION": 14.43135602, "ECCENTRICITY": 0.00214689, "INCLINATION": 98.8844, "RA_OF_ASC_NODE": 68.5398, "ARG_OF_PERICENTER": 25.3584, "MEAN_ANOMALY": 334.8653, "EPHEMERIS_TYPE": 0, "CLASSIFICATION_TYPE": "U", "NORAD_CAT_ID": 31209, "ELEMENT_SET_NO": 999, "REV_AT_EPOCH": 64624, "BSTAR": 0.0029439895, "MEAN_MOTION_DOT": 9.879e-05, "MEAN_MOTION_DDOT": 0}, "tle": {"line1": "1 31209U 99025BKP 25334.00380235  .00009879  00000+0  29440-2 0  9991", "line2": "2 31209  98.8844  68.5398 0021468  25.3584 334.8653 14.43135602646248"}}, "geometry": {"type": "Point", "coordinates": [82.8303964870402, -48.49538708069415]}}, {"type": "Feature", "properties": {"norad_id": 31210, "name": "FENGYUN 1C DEB", "group": "fengyun-1c-debris", "lat": 80.4874676288391, "lon": -87.09409861883182, "alt_km": 845.9460550680569, "timestamp": "2025-12-03T22:42:32.915604+00:00", "meta": {"OBJECT_NAME": "FENGYUN 1C DEB", "OBJECT_ID": "1999-025BKQ", "EPOCH": "2025-12-02T11:19:00.611904", "MEAN_MOTION": 14.11975225, "ECCENTRICITY": 0.0016666, "INCLINATION": 98.7187, "RA_OF_ASC_NODE": 337.787, "ARG_OF_PERICENTER": 184.133, "MEAN_ANOMALY": 330.4832, "EPHEMERIS_TYPE": 0, "CLASSIFICATION_TYPE": "U", "NORAD_CAT_ID": 31210, "ELEMENT_SET_NO": 999, "REV_AT_EPOCH": 95822, "BSTAR": 0.00046215782, "MEAN_MOTION_DOT": 8.04e-06, "MEAN_MOTION_DDOT": 0}, "tle": {"line1": "1 31210U 99025BKQ 25336.47153486  .00000804  00000+0  46216-3 0  9992", "line2": "2 31210  98.7187 337.7870 0016666 184.1330 330.4832 14.11975225958225"}}, "geometry": {"type": "Point", "coordinates": [-87.09409861883182, 80.4874676288391]}}]}